     2.11           N: GPS NAV DATA                         RINEX VERSION / TYPE
teqc  2019Feb25                         20221121 12:24:59UTCPGM / RUN BY / DATE
OSX ker:10.11.6|Core i5|gcc 4.3 -m64|OSX ker:10.10+|=+      COMMENT
    4.6566D-09  1.4901D-08 -5.9605D-08 -1.1921D-07          ION ALPHA
    8.1920D+04  8.1920D+04 -6.5536D+04 -5.2429D+05          ION BETA
   -1.862645149231D-09-9.769962616701D-15   589824     1539 DELTA-UTC: A0,A1,T,W
                                                            END OF HEADER
 3 09  7 10  0  0  0.0 4.179072566330D-04 5.229594535194D-12 0.000000000000D+00
    6.900000000000D+01-2.118750000000D+01 5.320578766319D-09 1.473789440446D+00
   -9.648501873016D-07 1.203572785016D-02 1.106783747673D-05 5.153647447586D+03
    4.320000000000D+05-3.073364496231D-07-2.311541743643D+00 1.136213541031D-07
    9.264389980401D-01 1.521562500000D+02 9.116809663488D-01-8.390706649469D-09
    3.818016178556D-10 1.000000000000D+00 1.539000000000D+03 0.000000000000D+00
    2.800000000000D+00 0.000000000000D+00-4.190951585770D-09 6.900000000000D+01
    4.248180000000D+05 4.000000000000D+00
 6 09  7 10  0  0  0.0 1.876316964626D-04 1.136868377216D-11 0.000000000000D+00
    7.500000000000D+01-2.437500000000D+00 5.106998441270D-09-2.407276571520D+00
   -5.587935447693D-09 5.979879642837D-03 1.033768057823D-05 5.153705093384D+03
    4.320000000000D+05 1.862645149231D-08-2.243597007918D+00 1.285225152969D-07
    9.338456015948D-01 1.634375000000D+02-1.319251575849D+00-8.057478483464D-09
    4.893060958486D-10 1.000000000000D+00 1.539000000000D+03 0.000000000000D+00
    2.000000000000D+00 0.000000000000D+00-4.656612873077D-09 7.500000000000D+01
    4.248180000000D+05 4.000000000000D+00
 7 09  7 10  0  0  0.0 1.553120091558D-05-6.821210263297D-13 0.000000000000D+00
    7.400000000000D+01 4.593750000000D+00 4.639836124941D-09 1.030315896907D-01
    3.054738044739D-07 2.811943530105D-03 1.635402441025D-06 5.153659818649D+03
    4.320000000000D+05 2.048909664154D-08 1.992703141410D+00 2.421438694000D-08
    9.677360431192D-01 3.498437500000D+02 2.878388202708D+00-8.396421173216D-09
    1.778645516297D-10 1.000000000000D+00 1.539000000000D+03 0.000000000000D+00
    2.000000000000D+00 0.000000000000D+00-1.071020960808D-08 7.400000000000D+01
    4.248180000000D+05 4.000000000000D+00
19 09  7 10  0  0  0.0 1.963088288903D-05-1.364242052659D-12 0.000000000000D+00
    8.000000000000D+00 3.937500000000D+00 4.704481674831D-09 2.210877231477D+00
    4.991888999939D-07 5.733570083976D-03 1.003965735435D-05 5.153630371094D+03
    4.320000000000D+05 1.173466444016D-07-2.123192066443D+00 2.123415470123D-07
    9.573542372353D-01 1.830625000000D+02-3.307830898949D-01-7.983546832485D-09
    4.068026592493D-10 1.000000000000D+00 1.539000000000D+03 0.000000000000D+00
    2.000000000000D+00 0.000000000000D+00-1.443549990654D-08 8.000000000000D+00
    4.248180000000D+05 4.000000000000D+00
21 09  7 10  0  0  0.0 3.667548298836D-06-2.160049916711D-12 0.000000000000D+00
    1.100000000000D+01 3.062500000000D+00 5.567731918383D-09-8.644056611883D-01
    9.872019290924D-08 1.547007029876D-02 4.442408680916D-06 5.153591466904D+03
    4.320000000000D+05 3.669410943985D-07-1.131759075017D+00 1.359730958939D-07
    9.334146025220D-01 2.777187500000D+02-2.581827038408D+00-8.615358864278D-09
   -1.885792836555D-10 1.000000000000D+00 1.539000000000D+03 0.000000000000D+00
    2.000000000000D+00 0.000000000000D+00-1.210719347000D-08 1.100000000000D+01
    4.248180000000D+05 4.000000000000D+00
 8 09  7 10  0  0  0.0-2.111429348588D-04-1.705302565824D-12 0.000000000000D+00
    8.900000000000D+01-9.000000000000D+00 4.145886978548D-09-6.229754366046D-01
   -5.438923835754D-07 1.070879807230D-02 1.667067408562D-06 5.153635334015D+03
    4.320000000000D+05 1.378357410431D-07 2.053980585564D+00-1.173466444016D-07
    9.889681090514D-01 3.570000000000D+02 2.996764752675D+00-8.201413050345D-09
    1.910793877949D-10 1.000000000000D+00 1.539000000000D+03 0.000000000000D+00
    2.000000000000D+00 0.000000000000D+00-3.725290298462D-09 8.900000000000D+01
    4.248180000000D+05 4.000000000000D+00
25 09  7 10  0  0  0.0 5.010357126594D-04 1.750777300913D-11 0.000000000000D+00
    5.300000000000D+01 2.331250000000D+01 4.540546274835D-09-1.727378206864D+00
    1.559033989906D-06 1.129696145654D-02 1.942738890648D-06 5.153645603180D+03
    4.320000000000D+05-1.713633537292D-07 1.898240196455D+00 2.849847078323D-07
    9.699172744562D-01 3.490000000000D+02-1.209084181906D+00-8.317489313958D-09
    2.321525272275D-10 1.000000000000D+00 1.539000000000D+03 0.000000000000D+00
    2.800000000000D+00 0.000000000000D+00-7.450580596924D-09 5.300000000000D+01
    4.248180000000D+05 4.000000000000D+00
15 09  7 10  0  0  0.0-3.072512336075D-04-2.614797267597D-12 0.000000000000D+00
    8.300000000000D+01 1.052500000000D+02 4.331609000330D-09 2.472585825216D+00
    5.394220352173D-06 1.470642513596D-03 7.849186658859D-06 5.153637399673D+03
    4.320000000000D+05-3.725290298462D-09 9.298292960596D-01-2.607703208923D-08
    9.562603841291D-01 2.250625000000D+02-4.757675742463D-01-7.971046311788D-09
    1.967939115420D-10 1.000000000000D+00 1.539000000000D+03 0.000000000000D+00
    2.000000000000D+00 0.000000000000D+00-9.778887033463D-09 8.300000000000D+01
    4.259220000000D+05 4.000000000000D+00
22 09  7 10  0  0  0.0 1.957993954420D-04-1.023181539495D-12 0.000000000000D+00
    7.600000000000D+01-1.375000000000D+00 4.655908222980D-09 3.110058349888D+00
   -8.009374141693D-08 5.157881649211D-03 9.981915354729D-06 5.153658641815D+03
    4.320000000000D+05 3.166496753693D-08-6.800861258027D-02 7.450580596924D-09
    9.397148464839D-01 1.751562500000D+02-1.894978543063D+00-7.894971714404D-09
   -5.257361847366D-10 1.000000000000D+00 1.539000000000D+03 0.000000000000D+00
    2.800000000000D+00 0.000000000000D+00-1.769512891769D-08 7.600000000000D+01
    4.273920000000D+05 4.000000000000D+00
28 09  7 10  0  0  0.0-2.586003392935D-05-1.136868377216D-13 0.000000000000D+00
    7.400000000000D+01-1.145937500000D+02 4.294464595974D-09-2.929854169832D+00
   -6.023794412613D-06 1.494384976104D-02 7.944181561470D-06 5.153655761719D+03
    4.320000000000D+05 2.309679985046D-07 3.070197957657D+00-2.197921276093D-07
    9.674482022837D-01 2.278750000000D+02-2.022915995600D+00-7.730679156674D-09
   -7.357449324439D-11 1.000000000000D+00 1.539000000000D+03 0.000000000000D+00
    2.800000000000D+00 0.000000000000D+00-1.071020960808D-08 7.400000000000D+01
    4.273920000000D+05 4.000000000000D+00
26 09  7 10  0  0  0.0 6.461096927524D-05 2.273736754432D-13 0.000000000000D+00
    4.700000000000D+01 1.015000000000D+02 3.584077862658D-09-3.247831596080D-02
    5.513429641724D-06 2.031001402065D-02 8.212402462959D-06 5.154906995773D+03
    4.320000000000D+05-1.080334186554D-07 1.000975010650D+00 3.706663846970D-07
    9.925887464483D-01 2.429062500000D+02 1.023426491947D+00-7.927830225950D-09
    3.325138505366D-10 1.000000000000D+00 1.539000000000D+03 0.000000000000D+00
    2.000000000000D+00 0.000000000000D+00-6.519258022308D-09 4.700000000000D+01
    4.319220000000D+05 4.000000000000D+00
